{"type": "FeatureCollection", "features": [ {"type": "Feature", "properties": {"norad_id": 58662, "name": "TIANMU-1 21", "group": "weather", "lat": 80.73322404506585, "lon": 45.1780399989649, "alt_km": 467.97967718517157, "timestamp": "2025-12-10T23:33:12.473597+00:00", "meta": {"OBJECT_NAME": "TIANMU-1 21", "OBJECT_ID": "2023-208C", "EPOCH": "2025-12-10T13:46:37.360992", "MEAN_MOTION": 15.31475186, "ECCENTRICITY": 0.00058674, "INCLINATION": 97.4373, "RA_OF_ASC_NODE": 97.9596, "ARG_OF_PERICENTER": 269.2824, "MEAN_ANOMALY": 90.7745, "EPHEMERIS_TYPE": 0, "CLASSIFICATION_TYPE": "U", "NORAD_CAT_ID": 58662, "ELEMENT_SET_NO": 999, "REV_AT_EPOCH": 10866, "BSTAR": 0.00053186943, "MEAN_MOTION_DOT": 0.00016113, "MEAN_MOTION_DDOT": 0}, "tle": {"line1": "1 58662U 23208C   25344.57404353  .00016113  00000+0  53187-3 0  9999", "line2": "2 58662  97.4373  97.9596 0005867 269.2824  90.7745 15.31475186108660"}}, "geometry": {"type": "Point", "coordinates": [45.1780399989649, 80.73322404506585]}}, {"type": "Feature", "properties": {"norad_id": 58663, "name": "TIANMU-1 22", "group": "weather", "lat": 31.271843844721875, "lon": 91.530744875888, "alt_km": 481.6261104337191, "timestamp": "2025-12-10T23:33:12.473606+00:00", "meta": {"OBJECT_NAME": "TIANMU-1 22", "OBJECT_ID": "2023-208D", "EPOCH": "2025-12-10T13:58:58.094112", "MEAN_MOTION": 15.27544598, "ECCENTRICITY": 0.00027294, "INCLINATION": 97.4381, "RA_OF_ASC_NODE": 95.684, "ARG_OF_PERICENTER": 298.5008, "MEAN_ANOMALY": 61.5956, "EPHEMERIS_TYPE": 0, "CLASSIFICATION_TYPE": "U", "NORAD_CAT_ID": 58663, "ELEMENT_SET_NO": 999, "REV_AT_EPOCH": 10850, "BSTAR": 0.0004947898, "MEAN_MOTION_DOT": 0.00013267, "MEAN_MOTION_DDOT": 0}, "tle": {"line1": "1 58663U 23208D   25344.58261683  .00013267  00000+0  49479-3 0  9994", "line2": "2 58663  97.4381  95.6840 0002729 298.5008  61.5956 15.27544598108502"}}, "geometry": {"type": "Point", "coordinates": [91.530744875888, 31.271843844721875]}}, {"type": "Feature", "properties": {"norad_id": 58700, "name": "TIANMU-1 15", "group": "weather", "lat": 0.41483340572015504, "lon": -13.488125999594725, "alt_km": 497.07919421457973, "timestamp": "2025-12-10T23:33:12.473615+00:00", "meta": {"OBJECT_NAME": "TIANMU-1 15", "OBJECT_ID": "2024-004A", "EPOCH": "2025-12-10T14:53:33.406656", "MEAN_MOTION": 15.2463417, "ECCENTRICITY": 0.00052733, "INCLINATION": 97.4631, "RA_OF_ASC_NODE": 166.098, "ARG_OF_PERICENTER": 307.6589, "MEAN_ANOMALY": 52.417, "EPHEMERIS_TYPE": 0, "CLASSIFICATION_TYPE": "U", "NORAD_CAT_ID": 58700, "ELEMENT_SET_NO": 999, "REV_AT_EPOCH": 10702, "BSTAR": 0.0004048606, "MEAN_MOTION_DOT": 9.929e-05, "MEAN_MOTION_DDOT": 0}, "tle": {"line1": "1 58700U 24004A   25344.62052554  .00009929  00000+0  40486-3 0  9990", "line2": "2 58700  97.4631 166.0980 0005273 307.6589  52.4170 15.24634170107029"}}, "geometry": {"type": "Point", "coordinates": [-13.488125999594725, 0.41483340572015504]}}, {"type": "Feature", "properties": {"norad_id": 58701, "name": "TIANMU-1 16", "group": "weather", "lat": -79.69380690345231, "lon": -60.23183118855415, "alt_km": 497.61630948761376, "timestamp": "2025-12-10T23:33:12.473624+00:00", "meta": {"OBJECT_NAME": "TIANMU-1 16", "OBJECT_ID": "2024-004B", "EPOCH": "2025-12-10T14:31:34.800960", "MEAN_MOTION": 15.243859, "ECCENTRICITY": 0.00045778, "INCLINATION": 97.4571, "RA_OF_ASC_NODE": 165.4738, "ARG_OF_PERICENTER": 305.8403, "MEAN_ANOMALY": 54.2409, "EPHEMERIS_TYPE": 0, "CLASSIFICATION_TYPE": "U", "NORAD_CAT_ID": 58701, "ELEMENT_SET_NO": 999, "REV_AT_EPOCH": 10702, "BSTAR": 0.00042607104, "MEAN_MOTION_DOT": 0.00010375, "MEAN_MOTION_DDOT": 0}, "tle": {"line1": "1 58701U 24004B   25344.60526390  .00010375  00000+0  42607-3 0  9997", "line2": "2 58701  97.4571 165.4738 0004577 305.8403  54.2409 15.24385900107027"}}, "geometry": {"type": "Point", "coordinates": [-60.23183118855415, -79.69380690345231]}}, {"type": "Feature", "properties": {"norad_id": 58702, "name": "TIANMU-1 17", "group": "weather", "lat": -12.882425787860543, "lon": 167.97461886278427, "alt_km": 495.0372560066935, "timestamp": "2025-12-10T23:33:12.473633+00:00", "meta": {"OBJECT_NAME": "TIANMU-1 17", "OBJECT_ID": "2024-004C", "EPOCH": "2025-12-10T15:44:00.561120", "MEAN_MOTION": 15.24431785, "ECCENTRICITY": 0.00037998, "INCLINATION": 97.4605, "RA_OF_ASC_NODE": 165.9328, "ARG_OF_PERICENTER": 309.5588, "MEAN_ANOMALY": 50.5313, "EPHEMERIS_TYPE": 0, "CLASSIFICATION_TYPE": "U", "NORAD_CAT_ID": 58702, "ELEMENT_SET_NO": 999, "REV_AT_EPOCH": 10702, "BSTAR": 0.00044004165, "MEAN_MOTION_DOT": 0.00010732, "MEAN_MOTION_DDOT": 0}, "tle": {"line1": "1 58702U 24004C   25344.65556205  .00010732  00000+0  44004-3 0  9991", "line2": "2 58702  97.4605 165.9328 0003799 309.5588  50.5313 15.24431785107022"}}, "geometry": {"type": "Point", "coordinates": [167.97461886278427, -12.882425787860543]}}, {"type": "Feature", "properties": {"norad_id": 58703, "name": "TIANMU-1 18", "group": "weather", "lat": 76.48727999775674, "lon": 133.39844007590983, "alt_km": 486.6715666756836, "timestamp": "2025-12-10T23:33:12.473642+00:00", "meta": {"OBJECT_NAME": "TIANMU-1 18", "OBJECT_ID": "2024-004D", "EPOCH": "2025-12-10T15:19:57.433152", "MEAN_MOTION": 15.24420206, "ECCENTRICITY": 0.00031344, "INCLINATION": 97.4622, "RA_OF_ASC_NODE": 166.1111, "ARG_OF_PERICENTER": 310.4408, "MEAN_ANOMALY": 49.6556, "EPHEMERIS_TYPE": 0, "CLASSIFICATION_TYPE": "U", "NORAD_CAT_ID": 58703, "ELEMENT_SET_NO": 999, "REV_AT_EPOCH": 10702, "BSTAR": 0.00041085046, "MEAN_MOTION_DOT": 0.0001001, "MEAN_MOTION_DDOT": 0}, "tle": {"line1": "1 58703U 24004D   25344.63885918  .00010010  00000+0  41085-3 0  9991", "line2": "2 58703  97.4622 166.1111 0003134 310.4408  49.6556 15.24420206107024"}}, "geometry": {"type": "Point", "coordinates": [133.39844007590983, 76.48727999775674]}}, {"type": "Feature", "properties": {"norad_id": 58990, "name": "INSAT-3DS", "group": "weather", "lat": 0.01888280205488588, "lon": 155.2990131965503, "alt_km": 35789.111810884875, "timestamp": "2025-12-10T23:33:12.473653+00:00", "meta": {"OBJECT_NAME": "INSAT-3DS", "OBJECT_ID": "2024-033A", "EPOCH": "2025-12-10T13:45:05.426208", "MEAN_MOTION": 1.00269606, "ECCENTRICITY": 0.0001592, "INCLINATION": 0.034, "RA_OF_ASC_NODE": 124.782, "ARG_OF_PERICENTER": 141.4662, "MEAN_ANOMALY": 101.6427, "EPHEMERIS_TYPE": 0, "CLASSIFICATION_TYPE": "U", "NORAD_CAT_ID": 58990, "ELEMENT_SET_NO": 999, "REV_AT_EPOCH": 4517, "BSTAR": 0, "MEAN_MOTION_DOT": -1.51e-06, "MEAN_MOTION_DDOT": 0}, "tle": {"line1": "1 58990U 24033A   25344.57297947 -.00000151  00000+0  00000+0 0  9997", "line2": "2 58990   0.0340 124.7820 0001592 141.4662 101.6427  1.00269606 45173"}}, "geometry": {"type": "Point", "coordinates": [155.2990131965503, 0.01888280205488588]}}, {"type": "Feature", "properties": {"norad_id": 59051, "name": "METEOR-M2 4", "group": "weather", "lat": 1.548789382405567, "lon": 122.15436166407765, "alt_km": 825.0876030467944, "timestamp": "2025-12-10T23:33:12.473663+00:00", "meta": {"OBJECT_NAME": "METEOR-M2 4", "OBJECT_ID": "2024-039A", "EPOCH": "2025-12-10T14:16:35.930784", "MEAN_MOTION": 14.22400745, "ECCENTRICITY": 0.00071564, "INCLINATION": 98.6763, "RA_OF_ASC_NODE": 301.5374, "ARG_OF_PERICENTER": 4.6741, "MEAN_ANOMALY": 355.4503, "EPHEMERIS_TYPE": 0, "CLASSIFICATION_TYPE": "U", "NORAD_CAT_ID": 59051, "ELEMENT_SET_NO": 999, "REV_AT_EPOCH": 9245, "BSTAR": 5.8895741e-05, "MEAN_MOTION_DOT": 8.8e-07, "MEAN_MOTION_DDOT": 0}, "tle": {"line1": "1 59051U 24039A   25344.59486031  .00000088  00000+0  58896-4 0  9997", "line2": "2 59051  98.6763 301.5374 0007156   4.6741 355.4503 14.22400745 92459"}}, "geometry": {"type": "Point", "coordinates": [122.15436166407765, 1.548789382405567]}}, {"type": "Feature", "properties": {"norad_id": 60133, "name": "GOES 19", "group": "weather", "lat": -0.0005259232356141154, "lon": -1.9234433775993396, "alt_km": 35782.67540131286, "timestamp": "2025-12-10T23:33:12.473674+00:00", "meta": {"OBJECT_NAME": "GOES 19", "OBJECT_ID": "2024-119A", "EPOCH": "2025-12-10T07:51:04.495968", "MEAN_MOTION": 1.00271256, "ECCENTRICITY": 0.00013501, "INCLINATION": 0.0012, "RA_OF_ASC_NODE": 239.7895, "ARG_OF_PERICENTER": 67.9696, "MEAN_ANOMALY": 174.1323, "EPHEMERIS_TYPE": 0, "CLASSIFICATION_TYPE": "U", "NORAD_CAT_ID": 60133, "ELEMENT_SET_NO": 999, "REV_AT_EPOCH": 507, "BSTAR": 0, "MEAN_MOTION_DOT": -2.45e-06, "MEAN_MOTION_DDOT": 0}, "tle": {"line1": "1 60133U 24119A   25344.32713537 -.00000245  00000+0  00000+0 0  9999", "line2": "2 60133   0.0012 239.7895 0001350  67.9696 174.1323  1.00271256  5070"}}, "geometry": {"type": "Point", "coordinates": [-1.9234433775993396, -0.0005259232356141154]}}, {"type": "Feature", "properties": {"norad_id": 65815, "name": "FENGYUN 3H", "group": "weather", "lat": 70.94739667798736, "lon": -101.57082881780686, "alt_km": 818.3739558931729, "timestamp": "2025-12-10T23:33:12.473686+00:00", "meta": {"OBJECT_NAME": "FENGYUN 3H", "OBJECT_ID": "2025-219A", "EPOCH": "2025-12-10T13:03:49.900320", "MEAN_MOTION": 14.19903779, "ECCENTRICITY": 6.015e-05, "INCLINATION": 98.6582, "RA_OF_ASC_NODE": 284.1824, "ARG_OF_PERICENTER": 87.6391, "MEAN_ANOMALY": 272.4855, "EPHEMERIS_TYPE": 0, "CLASSIFICATION_TYPE": "U", "NORAD_CAT_ID": 65815, "ELEMENT_SET_NO": 999, "REV_AT_EPOCH": 1061, "BSTAR": 0.00010738136, "MEAN_MOTION_DOT": 1.85e-06, "MEAN_MOTION_DDOT": 0}, "tle": {"line1": "1 65815U 25219A   25344.54432755  .00000185  00000+0  10738-3 0  9992", "line2": "2 65815  98.6582 284.1824 0000601  87.6391 272.4855 14.19903779 10616"}}, "geometry": {"type": "Point", "coordinates": [-101.57082881780686, 70.94739667798736]}}]}